[{"OBJECT_NAME":"ONEWEB-0189","OBJECT_ID":"2021-031H","EPOCH":"2026-03-09T16:15:08.770176","MEAN_MOTION":13.1450256,"ECCENTRICITY":0.00020082,"INCLINATION":87.8987,"RA_OF_ASC_NODE":309.5521,"ARG_OF_PERICENTER":82.6865,"MEAN_ANOMALY":277.4493,"EPHEMERIS_TYPE":0,"CLASSIFICATION_TYPE":"U","NORAD_CAT_ID":48217,"ELEMENT_SET_NO":999,"REV_AT_EPOCH":23515,"BSTAR":2.4854517e-5,"MEAN_MOTION_DOT":2.2e-7,"MEAN_MOTION_DDOT":0},{"OBJECT_NAME":"UNKNOWN","OBJECT_ID":"","EPOCH":"2026-03-06T09:35:38.016384","MEAN_MOTION":13.23147973,"ECCENTRICITY":0.01508445,"INCLINATION":100.3415,"RA_OF_ASC_NODE":127.8689,"ARG_OF_PERICENTER":310.4646,"MEAN_ANOMALY":48.3401,"EPHEMERIS_TYPE":0,"CLASSIFICATION_TYPE":"U","NORAD_CAT_ID":270073,"ELEMENT_SET_NO":999,"REV_AT_EPOCH":30272,"BSTAR":0.0019679922,"MEAN_MOTION_DOT":8.36e-6,"MEAN_MOTION_DDOT":0}]
